0 COSMOS 397 DEB
1 19024U 71015DN  13281.68992080  .00000443  00000-0  61165-3 0  1082
2 19024 066.2795 001.1215 0515821 327.6256 104.1214 13.21849494232281
0 COSMOS 397 DEB
1 19024U 71015DN  13283.27568925  .00000521  00000-0  70456-3 0  1097
2 19024 066.2795 357.5912 0515970 326.7864 090.2529 13.21850373232498
0 COSMOS 397 DEB
1 19024U 71015DN  13285.77794226  .00000732  00000-0  95561-3 0  1109
2 19024 066.2792 352.0206 0516205 325.4642 117.6425 13.21853439232825
0 COSMOS 397 DEB
1 19024U 71015DN  13287.20402287  .00000688  00000-0  90353-3 0  1117
2 19024 066.2789 348.8458 0516336 324.7112 063.8901 13.21855866233011
0 COSMOS 397 DEB
1 19024U 71015DN  13288.81020985  .00000692  00000-0  90778-3 0  1123
2 19024 066.2787 345.2702 0516501 323.8632 147.2184 13.21859425233221
0 COSMOS 397 DEB
1 19024U 71015DN  13290.15417949  .00000598  00000-0  79504-3 0  1133
2 19024 066.2785 342.2780 0516662 323.1531 062.7543 13.21862504233403
0 COSMOS 397 DEB
1 19024U 71015DN  13292.12166524  .00000704  00000-0  92127-3 0  1148
2 19024 066.2784 337.8975 0516856 322.1172 065.4376 13.21865049233662
0 COSMOS 397 DEB
1 19024U 71015DN  13294.56986157  .00001025  00000-0  13026-2 0  1158
2 19024 066.2784 332.4465 0517104 320.8314 195.7130 13.21868733233980
